[{"OBJECT_NAME":"TK-2","OBJECT_ID":"2022-031A","EPOCH":"2026-03-09T22:51:17.143200","MEAN_MOTION":15.02943491,"ECCENTRICITY":0.00164117,"INCLINATION":97.8366,"RA_OF_ASC_NODE":263.9365,"ARG_OF_PERICENTER":100.3205,"MEAN_ANOMALY":259.9871,"EPHEMERIS_TYPE":0,"CLASSIFICATION_TYPE":"U","NORAD_CAT_ID":52150,"ELEMENT_SET_NO":999,"REV_AT_EPOCH":21555,"BSTAR":0.00040164474,"MEAN_MOTION_DOT":5.349e-5,"MEAN_MOTION_DDOT":0},{"OBJECT_NAME":"STARLINK-30332","OBJECT_ID":"2023-129C","EPOCH":"2026-03-09T04:40:57.838368","MEAN_MOTION":15.02591697,"ECCENTRICITY":0.000203,"INCLINATION":43.0018,"RA_OF_ASC_NODE":122.6704,"ARG_OF_PERICENTER":321.1466,"MEAN_ANOMALY":38.923,"EPHEMERIS_TYPE":0,"CLASSIFICATION_TYPE":"U","NORAD_CAT_ID":57700,"ELEMENT_SET_NO":999,"REV_AT_EPOCH":14044,"BSTAR":-0.0053344579,"MEAN_MOTION_DOT":-0.00071641,"MEAN_MOTION_DDOT":0}]
